{"type": "FeatureCollection", "features": [ {"type": "Feature", "properties": {"norad_id": 39019, "name": "PLEIADES 1B", "group": "resource", "lat": 23.849545496265105, "lon": 64.47823339666496, "alt_km": 696.8707650427114, "timestamp": "2025-12-21T14:40:47.567658+00:00", "meta": {"OBJECT_NAME": "PLEIADES 1B", "OBJECT_ID": "2012-068A", "EPOCH": "2025-12-21T06:20:15.058752", "MEAN_MOTION": 14.58559806, "ECCENTRICITY": 0.00011735, "INCLINATION": 98.1792, "RA_OF_ASC_NODE": 67.7817, "ARG_OF_PERICENTER": 85.8911, "MEAN_ANOMALY": 274.2423, "EPHEMERIS_TYPE": 0, "CLASSIFICATION_TYPE": "U", "NORAD_CAT_ID": 39019, "ELEMENT_SET_NO": 999, "REV_AT_EPOCH": 69491, "BSTAR": 6.1972317e-05, "MEAN_MOTION_DOT": 2.43e-06, "MEAN_MOTION_DDOT": 0}, "tle": {"line1": "1 39019U 12068A   25355.26406318  .00000243  00000+0  61972-4 0  9996", "line2": "2 39019  98.1792  67.7817 0001173  85.8911 274.2423 14.58559806694914"}}, "geometry": {"type": "Point", "coordinates": [64.47823339666496, 23.849545496265105]}}, {"type": "Feature", "properties": {"norad_id": 39030, "name": "GOKTURK 2", "group": "resource", "lat": 52.367943420897035, "lon": -173.26323612467405, "alt_km": 638.7902836997564, "timestamp": "2025-12-21T14:40:47.567669+00:00", "meta": {"OBJECT_NAME": "GOKTURK 2", "OBJECT_ID": "2012-073A", "EPOCH": "2025-12-21T06:18:04.965408", "MEAN_MOTION": 14.75301427, "ECCENTRICITY": 0.00013059, "INCLINATION": 97.6886, "RA_OF_ASC_NODE": 196.4964, "ARG_OF_PERICENTER": 108.4423, "MEAN_ANOMALY": 251.6929, "EPHEMERIS_TYPE": 0, "CLASSIFICATION_TYPE": "U", "NORAD_CAT_ID": 39030, "ELEMENT_SET_NO": 999, "REV_AT_EPOCH": 69827, "BSTAR": 6.9749723e-05, "MEAN_MOTION_DOT": 4.25e-06, "MEAN_MOTION_DDOT": 0}, "tle": {"line1": "1 39030U 12073A   25355.26255747  .00000425  00000+0  69750-4 0  9997", "line2": "2 39030  97.6886 196.4964 0001305 108.4423 251.6929 14.75301427698271"}}, "geometry": {"type": "Point", "coordinates": [-173.26323612467405, 52.367943420897035]}}, {"type": "Feature", "properties": {"norad_id": 39084, "name": "LANDSAT 8", "group": "resource", "lat": 31.293910803058132, "lon": -111.41390603399343, "alt_km": 700.3753230611801, "timestamp": "2025-12-21T14:40:47.567680+00:00", "meta": {"OBJECT_NAME": "LANDSAT 8", "OBJECT_ID": "2013-008A", "EPOCH": "2025-12-21T05:45:41.424192", "MEAN_MOTION": 14.5711071, "ECCENTRICITY": 0.00010727, "INCLINATION": 98.2061, "RA_OF_ASC_NODE": 63.1877, "ARG_OF_PERICENTER": 91.1782, "MEAN_ANOMALY": 268.9539, "EPHEMERIS_TYPE": 0, "CLASSIFICATION_TYPE": "U", "NORAD_CAT_ID": 39084, "ELEMENT_SET_NO": 999, "REV_AT_EPOCH": 67198, "BSTAR": 8.7254656e-05, "MEAN_MOTION_DOT": 3.48e-06, "MEAN_MOTION_DDOT": 0}, "tle": {"line1": "1 39084U 13008A   25355.24006278  .00000348  00000+0  87255-4 0  9990", "line2": "2 39084  98.2061  63.1877 0001072  91.1782 268.9539 14.57110710671982"}}, "geometry": {"type": "Point", "coordinates": [-111.41390603399343, 31.293910803058132]}}, {"type": "Feature", "properties": {"norad_id": 39086, "name": "SARAL", "group": "resource", "lat": 74.75678005137325, "lon": 145.91639664184478, "alt_km": 773.3262867258454, "timestamp": "2025-12-21T14:40:47.567690+00:00", "meta": {"OBJECT_NAME": "SARAL", "OBJECT_ID": "2013-009A", "EPOCH": "2025-12-21T05:56:24.501984", "MEAN_MOTION": 14.327598, "ECCENTRICITY": 0.00029614, "INCLINATION": 98.5502, "RA_OF_ASC_NODE": 179.0669, "ARG_OF_PERICENTER": 92.7711, "MEAN_ANOMALY": 267.3812, "EPHEMERIS_TYPE": 0, "CLASSIFICATION_TYPE": "U", "NORAD_CAT_ID": 39086, "ELEMENT_SET_NO": 999, "REV_AT_EPOCH": 67012, "BSTAR": 5.0568448e-05, "MEAN_MOTION_DOT": 9.4e-07, "MEAN_MOTION_DDOT": 0}, "tle": {"line1": "1 39086U 13009A   25355.24750581  .00000094  00000+0  50568-4 0  9991", "line2": "2 39086  98.5502 179.0669 0002961  92.7711 267.3812 14.32759800670124"}}, "geometry": {"type": "Point", "coordinates": [145.91639664184478, 74.75678005137325]}}, {"type": "Feature", "properties": {"norad_id": 39150, "name": "GAOFEN-1", "group": "resource", "lat": 9.107101510657628, "lon": -112.60479811629764, "alt_km": 634.6502300965349, "timestamp": "2025-12-21T14:40:47.567700+00:00", "meta": {"OBJECT_NAME": "GAOFEN-1", "OBJECT_ID": "2013-018A", "EPOCH": "2025-12-21T05:46:42.993696", "MEAN_MOTION": 14.76494101, "ECCENTRICITY": 0.00184308, "INCLINATION": 97.9324, "RA_OF_ASC_NODE": 65.7502, "ARG_OF_PERICENTER": 117.2986, "MEAN_ANOMALY": 243.0103, "EPHEMERIS_TYPE": 0, "CLASSIFICATION_TYPE": "U", "NORAD_CAT_ID": 39150, "ELEMENT_SET_NO": 999, "REV_AT_EPOCH": 68198, "BSTAR": 0.0001038629, "MEAN_MOTION_DOT": 6.74e-06, "MEAN_MOTION_DDOT": 0}, "tle": {"line1": "1 39150U 13018A   25355.24077539  .00000674  00000+0  10386-3 0  9995", "line2": "2 39150  97.9324  65.7502 0018430 117.2986 243.0103 14.76494101681981"}}, "geometry": {"type": "Point", "coordinates": [-112.60479811629764, 9.107101510657628]}}, {"type": "Feature", "properties": {"norad_id": 39160, "name": "VNREDSAT 1", "group": "resource", "lat": -42.75609916771781, "lon": -136.83508473666598, "alt_km": 684.5902986637766, "timestamp": "2025-12-21T14:40:47.567710+00:00", "meta": {"OBJECT_NAME": "VNREDSAT 1", "OBJECT_ID": "2013-021B", "EPOCH": "2025-12-21T07:06:25.731360", "MEAN_MOTION": 14.64934423, "ECCENTRICITY": 0.00011969, "INCLINATION": 97.9367, "RA_OF_ASC_NODE": 50.2715, "ARG_OF_PERICENTER": 82.6334, "MEAN_ANOMALY": 277.5005, "EPHEMERIS_TYPE": 0, "CLASSIFICATION_TYPE": "U", "NORAD_CAT_ID": 39160, "ELEMENT_SET_NO": 999, "REV_AT_EPOCH": 67424, "BSTAR": 8.6990417e-05, "MEAN_MOTION_DOT": 4.2e-06, "MEAN_MOTION_DDOT": 0}, "tle": {"line1": "1 39160U 13021B   25355.29613115  .00000420  00000+0  86990-4 0  9995", "line2": "2 39160  97.9367  50.2715 0001196  82.6334 277.5005 14.64934423674244"}}, "geometry": {"type": "Point", "coordinates": [-136.83508473666598, -42.75609916771781]}}, {"type": "Feature", "properties": {"norad_id": 39227, "name": "ARIRANG-5 (KOMPSAT-5)", "group": "resource", "lat": 55.011947758367754, "lon": 10.809060934066547, "alt_km": 547.6989812093898, "timestamp": "2025-12-21T14:40:47.567721+00:00", "meta": {"OBJECT_NAME": "ARIRANG-5 (KOMPSAT-5)", "OBJECT_ID": "2013-042A", "EPOCH": "2025-12-21T06:08:57.166080", "MEAN_MOTION": 15.04540838, "ECCENTRICITY": 0.00034151, "INCLINATION": 97.6155, "RA_OF_ASC_NODE": 179.438, "ARG_OF_PERICENTER": 35.8085, "MEAN_ANOMALY": 324.337, "EPHEMERIS_TYPE": 0, "CLASSIFICATION_TYPE": "U", "NORAD_CAT_ID": 39227, "ELEMENT_SET_NO": 999, "REV_AT_EPOCH": 67710, "BSTAR": 0.00012153422, "MEAN_MOTION_DOT": 1.642e-05, "MEAN_MOTION_DDOT": 0}, "tle": {"line1": "1 39227U 13042A   25355.25621720  .00001642  00000+0  12153-3 0  9995", "line2": "2 39227  97.6155 179.4380 0003415  35.8085 324.3370 15.04540838677103"}}, "geometry": {"type": "Point", "coordinates": [10.809060934066547, 55.011947758367754]}}, {"type": "Feature", "properties": {"norad_id": 39418, "name": "SKYSAT-A", "group": "resource", "lat": 3.768641253771464, "lon": 45.0592699687888, "alt_km": 547.5118526877286, "timestamp": "2025-12-21T14:40:47.567731+00:00", "meta": {"OBJECT_NAME": "SKYSAT-A", "OBJECT_ID": "2013-066C", "EPOCH": "2025-12-21T01:57:13.302144", "MEAN_MOTION": 15.11659427, "ECCENTRICITY": 0.00213485, "INCLINATION": 97.4095, "RA_OF_ASC_NODE": 45.0363, "ARG_OF_PERICENTER": 206.3198, "MEAN_ANOMALY": 153.695, "EPHEMERIS_TYPE": 0, "CLASSIFICATION_TYPE": "U", "NORAD_CAT_ID": 39418, "ELEMENT_SET_NO": 999, "REV_AT_EPOCH": 66156, "BSTAR": 0.00016231332, "MEAN_MOTION_DOT": 2.711e-05, "MEAN_MOTION_DDOT": 0}, "tle": {"line1": "1 39418U 13066C   25355.08140396  .00002711  00000+0  16231-3 0  9998", "line2": "2 39418  97.4095  45.0363 0021348 206.3198 153.6950 15.11659427661563"}}, "geometry": {"type": "Point", "coordinates": [45.0592699687888, 3.768641253771464]}}, {"type": "Feature", "properties": {"norad_id": 39419, "name": "DUBAISAT-2", "group": "resource", "lat": 42.316761661577424, "lon": -21.091212196115436, "alt_km": 540.6087670413272, "timestamp": "2025-12-21T14:40:47.567741+00:00", "meta": {"OBJECT_NAME": "DUBAISAT-2", "OBJECT_ID": "2013-066D", "EPOCH": "2025-12-21T04:56:18.642048", "MEAN_MOTION": 15.08426027, "ECCENTRICITY": 0.00100329, "INCLINATION": 97.4441, "RA_OF_ASC_NODE": 345.3523, "ARG_OF_PERICENTER": 288.5104, "MEAN_ANOMALY": 71.5034, "EPHEMERIS_TYPE": 0, "CLASSIFICATION_TYPE": "U", "NORAD_CAT_ID": 39419, "ELEMENT_SET_NO": 999, "REV_AT_EPOCH": 65954, "BSTAR": 0.00014060932, "MEAN_MOTION_DOT": 2.129e-05, "MEAN_MOTION_DDOT": 0}, "tle": {"line1": "1 39419U 13066D   25355.20577132  .00002129  00000+0  14061-3 0  9997", "line2": "2 39419  97.4441 345.3523 0010032 288.5104  71.5034 15.08426027659540"}}, "geometry": {"type": "Point", "coordinates": [-21.091212196115436, 42.316761661577424]}}, {"type": "Feature", "properties": {"norad_id": 39574, "name": "GPM-CORE", "group": "resource", "lat": -63.40523194703042, "lon": 114.02183982894724, "alt_km": 433.3133816119589, "timestamp": "2025-12-21T14:40:47.567751+00:00", "meta": {"OBJECT_NAME": "GPM-CORE", "OBJECT_ID": "2014-009C", "EPOCH": "2025-12-21T05:42:18.175104", "MEAN_MOTION": 15.44585321, "ECCENTRICITY": 0.0009319, "INCLINATION": 64.9718, "RA_OF_ASC_NODE": 184.2239, "ARG_OF_PERICENTER": 248.5928, "MEAN_ANOMALY": 111.4219, "EPHEMERIS_TYPE": 0, "CLASSIFICATION_TYPE": "U", "NORAD_CAT_ID": 39574, "ELEMENT_SET_NO": 999, "REV_AT_EPOCH": 67032, "BSTAR": 0.00013581623, "MEAN_MOTION_DOT": 6.105e-05, "MEAN_MOTION_DDOT": 0}, "tle": {"line1": "1 39574U 14009C   25355.23771036  .00006105  00000+0  13582-3 0  9994", "line2": "2 39574  64.9718 184.2239 0009319 248.5928 111.4219 15.44585321670329"}}, "geometry": {"type": "Point", "coordinates": [114.02183982894724, -63.40523194703042]}}]}